     2.100          NAVIGATION                              RINEX VERSION / TYPE
fic2rin                                 06/11/2010 00:12:43 PGM / RUN BY / DATE
                                                            END OF HEADER
17 10  6 10 12  0  0.0  .155874062330D-03  .204636307899D-11  .000000000000D+00
     .320000000000D+02  .128125000000D+01  .489270380075D-08  .210912284095D+01
     .184401869774D-06  .546090584248D-02  .523403286934D-05  .515360367775D+04
     .388800000000D+06 -.149011611938D-06 -.190718234612D+01 -.409781932831D-07
     .959843099764D+00  .274468750000D+03 -.250001052724D+01 -.808747973314D-08
     .172150027883D-09  .100000000000D+01  .158700000000D+04  .000000000000D+00
     .240000000000D+01  .000000000000D+00 -.102445483208D-07  .320000000000D+02
     .381606000000D+06  .400000000000D+01
19 10  6 10 12  0  0.0 -.412235967815D-04 -.272848410532D-11  .000000000000D+00
     .740000000000D+02  .134375000000D+01  .500092259421D-08  .145614525425D+01
     .484287738800D-07  .656903919298D-02  .503845512867D-05  .515373621178D+04
     .388800000000D+06  .689178705215D-07 -.185216813995D+01  .447034835815D-07
     .957434080378D+00  .279781250000D+03 -.150762310027D+00 -.820248452355D-08
     .121433629627D-10  .100000000000D+01  .158700000000D+04  .000000000000D+00
     .240000000000D+01  .000000000000D+00 -.149011611938D-07  .740000000000D+02
     .381606000000D+06  .400000000000D+01
20 10  6 10 12  0  0.0  .548539683223D-04 -.568434188608D-12  .000000000000D+00
     .300000000000D+02  .131937500000D+03  .494699177635D-08 -.253756925633D+01
     .691600143909D-05  .421106058639D-02  .816024839878D-05  .515360207558D+04
     .388800000000D+06  .800937414169D-07  .132292593306D+00  .428408384323D-07
     .937488683081D+00  .211656250000D+03  .132695271309D+01 -.814391065514D-08
     .817891211309D-10  .100000000000D+01  .158700000000D+04  .000000000000D+00
     .240000000000D+01  .000000000000D+00 -.791624188423D-08  .300000000000D+02
     .381606000000D+06  .400000000000D+01
21 10  6 10 12  0  0.0 -.661262311041D-04 -.261479726760D-11  .000000000000D+00
     .830000000000D+02  .562500000000D+00  .515414326218D-08 -.160914175325D+01
    -.152736902237D-06  .166473790305D-01  .899657607079D-05  .515366596985D+04
     .388800000000D+06  .197440385818D-06 -.870127991066D+00 -.154599547386D-06
     .932383314033D+00  .183750000000D+03 -.247445892943D+01 -.804533512050D-08
    -.343585740297D-09  .100000000000D+01  .158700000000D+04  .000000000000D+00
     .240000000000D+01  .000000000000D+00 -.121071934700D-07  .830000000000D+02
     .381606000000D+06  .400000000000D+01
22 10  6 10 12  0  0.0  .170066021383D-03 -.102318153949D-11  .000000000000D+00
     .950000000000D+02  .131187500000D+03  .496770692493D-08  .264375091388D+01
     .676698982716D-05  .533889955841D-02  .839307904243D-05  .515372237396D+04
     .388800000000D+06  .130385160446D-07  .191087674677D+00 -.102445483208D-06
     .935276834331D+00  .203531250000D+03 -.194458271433D+01 -.812998150351D-08
     .446447167745D-10  .100000000000D+01  .158700000000D+04  .000000000000D+00
     .485000000000D+01  .000000000000D+00 -.176951289177D-07  .950000000000D+02
     .381606000000D+06  .400000000000D+01
23 10  6 10 12  0  0.0  .367556698620D-03 -.147792889038D-11  .000000000000D+00
     .550000000000D+02  .180312500000D+02  .462626413104D-08  .934238697923D+00
     .907108187675D-06  .674379908014D-02 -.279396772385D-06  .515368253708D+04
     .388800000000D+06  .707805156708D-07  .121959255654D+01  .130385160446D-07
     .967697347473D+00  .381343750000D+03  .302245613377D+01 -.846285251178D-08
    -.160006664920D-09  .100000000000D+01  .158700000000D+04  .000000000000D+00
     .240000000000D+01  .000000000000D+00 -.200234353542D-07  .550000000000D+02
     .381606000000D+06  .400000000000D+01
26 10  6 10 12  0  0.0 -.640847720206D-04 -.557065504836D-11  .000000000000D+00
     .430000000000D+02  .703125000000D+01  .429232164957D-08  .675379932971D-01
     .607222318649D-06  .194081601221D-01  .623986124992D-06  .515236727905D+04
     .388800000000D+06 -.188127160072D-06  .127721706938D+01  .242143869400D-06
     .990318114725D+00  .381750000000D+03  .109891003952D+01 -.859892960850D-08
    -.127148153374D-09  .100000000000D+01  .158700000000D+04  .000000000000D+00
     .240000000000D+01  .000000000000D+00 -.605359673500D-08  .430000000000D+02
     .381606000000D+06  .400000000000D+01
27 10  6 10 12  0  0.0  .159760937095D-03  .341060513165D-11  .000000000000D+00
     .940000000000D+02 -.153875000000D+03  .386301805306D-08  .169849168833D+01
    -.845454633236D-05  .215129220160D-01  .554881989956D-05  .515362821770D+04
     .388800000000D+06  .366941094398D-06  .220614768755D+01 -.357627868652D-06
     .978465672406D+00  .277906250000D+03 -.141255290972D+01 -.776603777236D-08
    -.379658671450D-09  .100000000000D+01  .158700000000D+04  .000000000000D+00
     .340000000000D+01  .000000000000D+00 -.419095158577D-08  .940000000000D+02
     .381606000000D+06  .400000000000D+01
29 10  6 10 12  0  0.0  .126350671053D-03  .284217094304D-11  .000000000000D+00
     .520000000000D+02  .528125000000D+01  .488127475326D-08 -.143790249756D+01
     .396743416786D-06  .303029431961D-02  .544637441635D-05  .515371580887D+04
     .388800000000D+06 -.186264514923D-07 -.189891158662D+01  .484287738800D-07
     .960176269116D+00  .275718750000D+03 -.128305141782D+01 -.810176604250D-08
     .243581574722D-09  .100000000000D+01  .158700000000D+04  .000000000000D+00
     .240000000000D+01  .000000000000D+00 -.884756445885D-08  .520000000000D+02
     .381606000000D+06  .400000000000D+01
30 10  6 10 12  0  0.0  .250594224781D-03  .341060513165D-11  .000000000000D+00
     .189000000000D+03 -.444687500000D+02  .416017328792D-08 -.308333200106D+01
    -.222772359848D-05  .122924416792D-01  .106673687696D-04  .515372833252D+04
     .388800000000D+06  .150874257088D-06 -.302122116759D+01 -.372529029846D-08
     .956645801600D+00  .169531250000D+03  .148221815560D+01 -.746781106431D-08
     .536808074497D-09  .100000000000D+01  .158700000000D+04  .000000000000D+00
     .340000000000D+01  .000000000000D+00 -.791624188423D-08  .189000000000D+03
     .381606000000D+06  .400000000000D+01
31 10  6 10 12  0  0.0 -.316808000207D-04  .216004991671D-11  .000000000000D+00
     .220000000000D+02 -.133031250000D+03  .396230790317D-08 -.717374315988D+00
    -.694394111633D-05  .736431416590D-02  .654347240925D-05  .515370600700D+04
     .388800000000D+06 -.145286321640D-06  .226194096489D+01  .931322574615D-08
     .977006042966D+00  .264750000000D+03 -.105082976369D+01 -.794461663946D-08
    -.198222542479D-09  .100000000000D+01  .158700000000D+04  .000000000000D+00
     .240000000000D+01  .000000000000D+00 -.130385160446D-07  .220000000000D+02
     .381606000000D+06  .400000000000D+01
32 10  6 10 12  0  0.0 -.125197693706D-04 -.852651282912D-11  .000000000000D+00
     .169000000000D+03  .118593750000D+03  .458304804520D-08  .774231282526D-01
     .626407563686D-05  .126308259787D-01  .767223536968D-05  .515372547913D+04
     .388800000000D+06 -.689178705215D-07  .249756190228D+00 -.154599547386D-06
     .959412371331D+00  .236843750000D+03 -.976073312731D+00 -.827534470132D-08
     .132862677121D-09  .100000000000D+01  .158700000000D+04  .000000000000D+00
     .240000000000D+01  .000000000000D+00 -.325962901115D-08  .169000000000D+03
     .381606000000D+06  .400000000000D+01
27 10  6 10 11 59 44.0  .159756746143D-03  .341060513165D-11  .000000000000D+00
     .100000000000D+02 -.153875000000D+03  .386301805306D-08  .169615809847D+01
    -.845454633236D-05  .215129136341D-01  .554881989956D-05  .515362822723D+04
     .388784000000D+06  .366941094398D-06  .220614778410D+01 -.357627868652D-06
     .978465676794D+00  .277906250000D+03 -.141255317451D+01 -.776603777236D-08
    -.379658671450D-09  .100000000000D+01  .158700000000D+04  .000000000000D+00
     .240000000000D+01  .000000000000D+00 -.419095158577D-08  .100000000000D+02
     .383316000000D+06  .400000000000D+01
22 10  6 10 11 59 44.0  .170065555722D-03 -.102318153949D-11  .000000000000D+00
     .130000000000D+02  .131187500000D+03  .496806408267D-08  .264141741617D+01
     .676885247231D-05  .533889653161D-02  .839307904243D-05  .515372236443D+04
     .388784000000D+06  .130385160446D-07  .191087797562D+00 -.102445483208D-06
     .935276831406D+00  .203531250000D+03 -.194458281673D+01 -.812998150351D-08
     .450018745087D-10  .100000000000D+01  .158700000000D+04  .000000000000D+00
     .240000000000D+01  .000000000000D+00 -.176951289177D-07  .130000000000D+02
     .384126000000D+06  .400000000000D+01
12 10  6 10 11 59 44.0 -.105699989945D-03  .409272615798D-11  .000000000000D+00
     .110000000000D+02 -.373125000000D+02  .397016537332D-08 -.715259063720D+00
    -.191479921341D-05  .352011481300D-02  .106096267700D-04  .515367917633D+04
     .388784000000D+06 -.149011611938D-07 -.296744716631D+01 -.108033418655D-06
     .971335301431D+00  .182062500000D+03 -.415598708932D+00 -.757995859284D-08
     .563594904561D-09  .100000000000D+01  .158700000000D+04  .000000000000D+00
     .240000000000D+01  .000000000000D+00 -.116415321827D-07  .110000000000D+02
     .385596000000D+06  .400000000000D+01
16 10  6 10 11 59 44.0 -.800751149654D-04 -.375166564481D-11  .000000000000D+00
     .000000000000D+00 -.258125000000D+02  .393159233803D-08 -.302862489066D+01
    -.123679637909D-05  .595852837432D-02  .104717910290D-04  .515378343773D+04
     .388784000000D+06 -.428408384323D-07 -.295001696846D+01 -.130385160446D-07
     .972541372058D+00  .184718750000D+03 -.205338249345D+00 -.756531512574D-08
     .579309844866D-09  .100000000000D+01  .158700000000D+04  .000000000000D+00
     .240000000000D+01  .000000000000D+00 -.977888703346D-08  .000000000000D+00
     .386796000000D+06  .400000000000D+01
